{"type": "FeatureCollection", "features": [ {"type": "Feature", "properties": {"norad_id": 31241, "name": "FENGYUN 1C DEB", "group": "fengyun-1c-debris", "lat": 0.17264153429733836, "lon": 148.66434073748746, "alt_km": 802.0414589946731, "timestamp": "2025-12-26T19:22:39.188025+00:00", "meta": {"OBJECT_NAME": "FENGYUN 1C DEB", "OBJECT_ID": "1999-025BLX", "EPOCH": "2025-12-25T21:40:43.645152", "MEAN_MOTION": 14.38743196, "ECCENTRICITY": 0.0067062, "INCLINATION": 99.2357, "RA_OF_ASC_NODE": 147.7201, "ARG_OF_PERICENTER": 142.8246, "MEAN_ANOMALY": 217.761, "EPHEMERIS_TYPE": 0, "CLASSIFICATION_TYPE": "U", "NORAD_CAT_ID": 31241, "ELEMENT_SET_NO": 999, "REV_AT_EPOCH": 97880, "BSTAR": 0.00055397, "MEAN_MOTION_DOT": 1.696e-05, "MEAN_MOTION_DDOT": 0}, "tle": {"line1": "1 31241U 99025BLX 25359.90328293  .00001696  00000+0  55397-3 0  9999", "line2": "2 31241  99.2357 147.7201 0067062 142.8246 217.7610 14.38743196978800"}}, "geometry": {"type": "Point", "coordinates": [148.66434073748746, 0.17264153429733836]}}, {"type": "Feature", "properties": {"norad_id": 31243, "name": "FENGYUN 1C DEB", "group": "fengyun-1c-debris", "lat": 49.940562890113405, "lon": -128.82729677932045, "alt_km": 816.3287828303019, "timestamp": "2025-12-26T19:22:39.188035+00:00", "meta": {"OBJECT_NAME": "FENGYUN 1C DEB", "OBJECT_ID": "1999-025BLZ", "EPOCH": "2025-12-26T08:31:47.157024", "MEAN_MOTION": 14.07202947, "ECCENTRICITY": 0.00662489, "INCLINATION": 98.7491, "RA_OF_ASC_NODE": 40.1826, "ARG_OF_PERICENTER": 130.4229, "MEAN_ANOMALY": 230.2746, "EPHEMERIS_TYPE": 0, "CLASSIFICATION_TYPE": "U", "NORAD_CAT_ID": 31243, "ELEMENT_SET_NO": 999, "REV_AT_EPOCH": 69499, "BSTAR": 0.00065328956, "MEAN_MOTION_DOT": 1.075e-05, "MEAN_MOTION_DDOT": 0}, "tle": {"line1": "1 31243U 99025BLZ 25360.35540691  .00001075  00000+0  65329-3 0  9997", "line2": "2 31243  98.7491  40.1826 0066248 130.4229 230.2746 14.07202947694998"}}, "geometry": {"type": "Point", "coordinates": [-128.82729677932045, 49.940562890113405]}}, {"type": "Feature", "properties": {"norad_id": 31244, "name": "FENGYUN 1C DEB", "group": "fengyun-1c-debris", "lat": 72.13854551250805, "lon": -86.02188662143602, "alt_km": 800.6488688394275, "timestamp": "2025-12-26T19:22:39.188045+00:00", "meta": {"OBJECT_NAME": "FENGYUN 1C DEB", "OBJECT_ID": "1999-025BMA", "EPOCH": "2025-12-22T10:42:55.008864", "MEAN_MOTION": 14.0626394, "ECCENTRICITY": 0.01029519, "INCLINATION": 99.0337, "RA_OF_ASC_NODE": 60.0445, "ARG_OF_PERICENTER": 148.0726, "MEAN_ANOMALY": 212.6736, "EPHEMERIS_TYPE": 0, "CLASSIFICATION_TYPE": "U", "NORAD_CAT_ID": 31244, "ELEMENT_SET_NO": 999, "REV_AT_EPOCH": 57776, "BSTAR": 0.00030551963, "MEAN_MOTION_DOT": 4.84e-06, "MEAN_MOTION_DDOT": 0}, "tle": {"line1": "1 31244U 99025BMA 25356.44647001  .00000484  00000+0  30552-3 0  9999", "line2": "2 31244  99.0337  60.0445 0102951 148.0726 212.6736 14.06263940577766"}}, "geometry": {"type": "Point", "coordinates": [-86.02188662143602, 72.13854551250805]}}, {"type": "Feature", "properties": {"norad_id": 31246, "name": "FENGYUN 1C DEB", "group": "fengyun-1c-debris", "lat": 65.11122895951206, "lon": -172.08287196825577, "alt_km": 918.020812803813, "timestamp": "2025-12-26T19:22:39.188055+00:00", "meta": {"OBJECT_NAME": "FENGYUN 1C DEB", "OBJECT_ID": "1999-025BMC", "EPOCH": "2025-12-25T19:10:26.013216", "MEAN_MOTION": 14.07301206, "ECCENTRICITY": 0.01475516, "INCLINATION": 98.8114, "RA_OF_ASC_NODE": 206.4652, "ARG_OF_PERICENTER": 307.3273, "MEAN_ANOMALY": 51.4527, "EPHEMERIS_TYPE": 0, "CLASSIFICATION_TYPE": "U", "NORAD_CAT_ID": 31246, "ELEMENT_SET_NO": 999, "REV_AT_EPOCH": 61936, "BSTAR": 0.0023125012, "MEAN_MOTION_DOT": 4.244e-05, "MEAN_MOTION_DDOT": 0}, "tle": {"line1": "1 31246U 99025BMC 25359.79891219  .00004244  00000+0  23125-2 0  9999", "line2": "2 31246  98.8114 206.4652 0147551 307.3273  51.4527 14.07301206619365"}}, "geometry": {"type": "Point", "coordinates": [-172.08287196825577, 65.11122895951206]}}, {"type": "Feature", "properties": {"norad_id": 31247, "name": "FENGYUN 1C DEB", "group": "fengyun-1c-debris", "lat": -18.729937941642994, "lon": -107.34834434723716, "alt_km": 849.4389453977683, "timestamp": "2025-12-26T19:22:39.188066+00:00", "meta": {"OBJECT_NAME": "FENGYUN 1C DEB", "OBJECT_ID": "1999-025BMD", "EPOCH": "2025-12-26T11:44:45.850848", "MEAN_MOTION": 14.05167915, "ECCENTRICITY": 0.00594588, "INCLINATION": 99.3666, "RA_OF_ASC_NODE": 249.1153, "ARG_OF_PERICENTER": 25.3771, "MEAN_ANOMALY": 148.5587, "EPHEMERIS_TYPE": 0, "CLASSIFICATION_TYPE": "U", "NORAD_CAT_ID": 31247, "ELEMENT_SET_NO": 999, "REV_AT_EPOCH": 95714, "BSTAR": 0.0010173318, "MEAN_MOTION_DOT": 1.622e-05, "MEAN_MOTION_DDOT": 0}, "tle": {"line1": "1 31247U 99025BMD 25360.48941957  .00001622  00000+0  10173-2 0  9999", "line2": "2 31247  99.3666 249.1153 0059458  25.3771 148.5587 14.05167915957142"}}, "geometry": {"type": "Point", "coordinates": [-107.34834434723716, -18.729937941642994]}}, {"type": "Feature", "properties": {"norad_id": 31248, "name": "FENGYUN 1C DEB", "group": "fengyun-1c-debris", "lat": -67.53140814975782, "lon": 81.51224471683605, "alt_km": 849.4021586893505, "timestamp": "2025-12-26T19:22:39.188077+00:00", "meta": {"OBJECT_NAME": "FENGYUN 1C DEB", "OBJECT_ID": "1999-025BME", "EPOCH": "2025-12-26T02:36:42.397056", "MEAN_MOTION": 13.92804198, "ECCENTRICITY": 0.01100359, "INCLINATION": 99.2628, "RA_OF_ASC_NODE": 57.5732, "ARG_OF_PERICENTER": 274.8692, "MEAN_ANOMALY": 114.5293, "EPHEMERIS_TYPE": 0, "CLASSIFICATION_TYPE": "U", "NORAD_CAT_ID": 31248, "ELEMENT_SET_NO": 999, "REV_AT_EPOCH": 95010, "BSTAR": 0.00060879414, "MEAN_MOTION_DOT": 7.82e-06, "MEAN_MOTION_DDOT": 0}, "tle": {"line1": "1 31248U 99025BME 25360.10882404  .00000782  00000+0  60879-3 0  9995", "line2": "2 31248  99.2628  57.5732 0110035 274.8692 114.5293 13.92804198950108"}}, "geometry": {"type": "Point", "coordinates": [81.51224471683605, -67.53140814975782]}}, {"type": "Feature", "properties": {"norad_id": 31250, "name": "FENGYUN 1C DEB", "group": "fengyun-1c-debris", "lat": -75.40578514608971, "lon": -115.73341264664889, "alt_km": 801.8251572769441, "timestamp": "2025-12-26T19:22:39.188087+00:00", "meta": {"OBJECT_NAME": "FENGYUN 1C DEB", "OBJECT_ID": "1999-025BMG", "EPOCH": "2025-12-26T07:45:53.081856", "MEAN_MOTION": 14.03133084, "ECCENTRICITY": 0.01329344, "INCLINATION": 98.3872, "RA_OF_ASC_NODE": 209.3058, "ARG_OF_PERICENTER": 259.436, "MEAN_ANOMALY": 99.181, "EPHEMERIS_TYPE": 0, "CLASSIFICATION_TYPE": "U", "NORAD_CAT_ID": 31250, "ELEMENT_SET_NO": 999, "REV_AT_EPOCH": 95708, "BSTAR": 0.001109166, "MEAN_MOTION_DOT": 1.826e-05, "MEAN_MOTION_DDOT": 0}, "tle": {"line1": "1 31250U 99025BMG 25360.32353104  .00001826  00000+0  11092-2 0  9994", "line2": "2 31250  98.3872 209.3058 0132934 259.4360  99.1810 14.03133084957082"}}, "geometry": {"type": "Point", "coordinates": [-115.73341264664889, -75.40578514608971]}}, {"type": "Feature", "properties": {"norad_id": 31252, "name": "FENGYUN 1C DEB", "group": "fengyun-1c-debris", "lat": 50.78743739916857, "lon": 8.935071804235339, "alt_km": 718.9632105491319, "timestamp": "2025-12-26T19:22:39.188097+00:00", "meta": {"OBJECT_NAME": "FENGYUN 1C DEB", "OBJECT_ID": "1999-025BMJ", "EPOCH": "2025-12-24T18:46:53.351616", "MEAN_MOTION": 14.40204702, "ECCENTRICITY": 0.02143798, "INCLINATION": 98.3164, "RA_OF_ASC_NODE": 17.2934, "ARG_OF_PERICENTER": 136.0097, "MEAN_ANOMALY": 225.8379, "EPHEMERIS_TYPE": 0, "CLASSIFICATION_TYPE": "U", "NORAD_CAT_ID": 31252, "ELEMENT_SET_NO": 999, "REV_AT_EPOCH": 97380, "BSTAR": 0.00029483577, "MEAN_MOTION_DOT": 1.174e-05, "MEAN_MOTION_DDOT": 0}, "tle": {"line1": "1 31252U 99025BMJ 25358.78256194  .00001174  00000+0  29484-3 0  9995", "line2": "2 31252  98.3164  17.2934 0214379 136.0097 225.8379 14.40204702973801"}}, "geometry": {"type": "Point", "coordinates": [8.935071804235339, 50.78743739916857]}}, {"type": "Feature", "properties": {"norad_id": 31253, "name": "FENGYUN 1C DEB", "group": "fengyun-1c-debris", "lat": 57.508869240227106, "lon": -99.64373765583977, "alt_km": 796.3334569944782, "timestamp": "2025-12-26T19:22:39.188108+00:00", "meta": {"OBJECT_NAME": "FENGYUN 1C DEB", "OBJECT_ID": "1999-025BMK", "EPOCH": "2025-12-21T10:31:09.949440", "MEAN_MOTION": 14.03607251, "ECCENTRICITY": 0.02906334, "INCLINATION": 99.0756, "RA_OF_ASC_NODE": 60.4551, "ARG_OF_PERICENTER": 66.7312, "MEAN_ANOMALY": 296.4166, "EPHEMERIS_TYPE": 0, "CLASSIFICATION_TYPE": "U", "NORAD_CAT_ID": 31253, "ELEMENT_SET_NO": 999, "REV_AT_EPOCH": 69120, "BSTAR": 6.5782528e-05, "MEAN_MOTION_DOT": 1.04e-06, "MEAN_MOTION_DDOT": 0}, "tle": {"line1": "1 31253U 99025BMK 25355.43830960  .00000104  00000+0  65783-4 0  9999", "line2": "2 31253  99.0756  60.4551 0290633  66.7312 296.4166 14.03607251691202"}}, "geometry": {"type": "Point", "coordinates": [-99.64373765583977, 57.508869240227106]}}, {"type": "Feature", "properties": {"norad_id": 31254, "name": "FENGYUN 1C DEB", "group": "fengyun-1c-debris", "lat": 28.339801234676198, "lon": 45.65101464566652, "alt_km": 840.0701571790887, "timestamp": "2025-12-26T19:22:39.188118+00:00", "meta": {"OBJECT_NAME": "FENGYUN 1C DEB", "OBJECT_ID": "1999-025BML", "EPOCH": "2025-12-24T16:01:08.448960", "MEAN_MOTION": 14.36394429, "ECCENTRICITY": 0.01518936, "INCLINATION": 98.4606, "RA_OF_ASC_NODE": 48.1531, "ARG_OF_PERICENTER": 166.6085, "MEAN_ANOMALY": 324.1697, "EPHEMERIS_TYPE": 0, "CLASSIFICATION_TYPE": "U", "NORAD_CAT_ID": 31254, "ELEMENT_SET_NO": 999, "REV_AT_EPOCH": 97687, "BSTAR": 0.00049743743, "MEAN_MOTION_DOT": 1.616e-05, "MEAN_MOTION_DDOT": 0}, "tle": {"line1": "1 31254U 99025BML 25358.66745890  .00001616  00000+0  49744-3 0  9992", "line2": "2 31254  98.4606  48.1531 0151893 166.6085 324.1697 14.36394429976875"}}, "geometry": {"type": "Point", "coordinates": [45.65101464566652, 28.339801234676198]}}]}